COSMOS 1933             
1 18958U 88020A   26064.57124519  .00005218  00000+0  25569-3 0  9996
2 18958  82.5096 254.9878 0003489 198.1021 162.0089 15.17938823 49604
SL-3 R/B                
1 19046U 88032B   26064.78235955  .00006943  00000+0  32448-3 0  9998
2 19046  97.5188  48.0469 0024204 246.1196 113.7503 15.19853216 51515
SL-16 R/B               
1 19120U 88039B   26064.47069534 -.00000074  00000+0 -12085-4 0  9999
2 19120  71.0130  77.4694 0022514 340.5401  19.4862 14.19615722957789
COSMOS 1953             
1 19210U 88050A   26064.82858362  .00010622  00000+0  38165-3 0  9990
2 19210  82.5106 162.1287 0012341 134.8339 225.3906 15.28442834 37194
SL-8 R/B                
1 19257U 88053B   26064.63418509  .00000370  00000+0  12839-3 0  9997
2 19257  74.0466 119.9422 0021348 299.8199 173.7495 14.38913126976013
COSMOS 1975             
1 19573U 88093A   26064.59921800  .00008983  00000+0  32709-3 0  9996
2 19573  82.5192 121.7917 0011841 177.2898 182.8407 15.27998410 18789
SL-14 R/B               
1 19574U 88093B   26064.42925985  .00000828  00000+0  92432-4 0  9997
2 19574  82.5297  46.0434 0022015  54.8354  60.7688 14.85650533   387
SL-16 R/B               
1 19650U 88102B   26064.66683025  .00000142  00000+0  96025-4 0  9996
2 19650  71.0000 159.9612 0013697   7.8268 352.3066 14.16149885926325
INTERCOSMOS 24          
1 20261U 89080A   26064.59280706  .00000961  00000+0  28585-3 0  9997
2 20261  82.6031 107.0723 1186770 302.3389  46.8135 12.59550817666289
SL-14 R/B               
1 20262U 89080C   26064.71486794  .00000909  00000+0  27084-3 0  9992
2 20262  82.5972 175.7370 1230419 193.8320 162.6001 12.50488178659654
DELTA 1 R/B             
1 20323U 89089B   26064.55124094  .00000496  00000+0  13091-3 0  9997
2 20323  97.0708 272.6481 0070210 134.8691 225.8238 14.50659365895135
ARIANE 40 R/B           
1 20443U 90005H   26064.78304279  .00000380  00000+0  13441-3 0  9991
2 20443  98.3092 125.5608 0009605 210.5753 149.4877 14.39867547892245
